YAOGAN-35 04A           
1 53522U 22100A   22255.51162204  .00011569  00000+0  48089-3 0  9992
2 53522  35.0019  58.2245 0006172 121.2873 238.8463 15.22995864  3630
CZ-2D R/B               
1 53523U 22100B   22255.63274230  .00018263  00000+0  73737-3 0  9995
2 53523  35.0005  57.3178 0006758 119.8682 240.2722 15.23897868  3655
YAOGAN-35 04B           
1 53524U 22100C   22255.57350568  .00010922  00000+0  45282-3 0  9996
2 53524  35.0001  57.7807 0004585 118.7363 241.3839 15.23098128  3591
CZ-2D DEB               
1 53525U 22100D   22255.62737198  .00020266  00000+0  80865-3 0  9999
2 53525  35.0003  57.2731 0006850 131.1259 229.0057 15.24276776  3600
YAOGAN-35 04C           
1 53526U 22100E   22255.64213140  .00008188  00000+0  34183-3 0  9999
2 53526  35.0008  57.3951 0004700 131.9092 228.2030 15.22916969  3601
STARLINK-4511           
1 53527U 22101A   22255.50001157 -.01116786  00000+0 -18876-1 0  9995
2 53527  53.2176  37.8892 0001698  35.6205 240.0491 15.53848909  1306
STARLINK-4503           
1 53528U 22101B   22255.50001157 -.01116981  00000+0 -18883-1 0  9991
2 53528  53.2176  37.8792 0001962  26.7940 248.0748 15.53841707  1309
STARLINK-4478           
1 53529U 22101C   22255.50001157 -.01116688  00000+0 -18870-1 0  9992
2 53529  53.2177  37.9001 0001548  41.9894 234.4807 15.53856197  1306
STARLINK-4482           
1 53530U 22101D   22255.50001157 -.01116654  00000+0 -18857-1 0  9992
2 53530  53.2177  37.9189 0001940  26.1473 251.9240 15.53870640  1303
STARLINK-4487           
1 53531U 22101E   22255.50001157 -.01114871  00000+0 -18829-1 0  9991
2 53531  53.2177  37.9109 0002031  19.7103 257.5609 15.53862210  1301
STARLINK-4483           
1 53532U 22101F   22255.50001157 -.01116775  00000+0 -18855-1 0  9996
2 53532  53.2177  38.0191 0001586  39.8275 239.0418 15.53879893  1300
STARLINK-4493           
1 53533U 22101G   22255.50001157 -.01116935  00000+0 -18852-1 0  9992
2 53533  53.2177  38.0262 0001738  33.8805 245.7891 15.53887214  1307
STARLINK-4488           
1 53534U 22101H   22255.50001157 -.01117115  00000+0 -18836-1 0  9996
2 53534  53.2178  38.0600 0001595  38.9358 243.9344 15.53916416  1305
STARLINK-4138           
1 53535U 22101J   22255.50001157 -.01116858  00000+0 -18842-1 0  9997
2 53535  53.2178  38.0385 0001495  43.9442 237.3260 15.53901667  1301
STARLINK-4053           
1 53536U 22101K   22255.50001157 -.00006430  00000+0 -41395-4 0  9993
2 53536  53.2173  37.4075 0002059  38.0109 164.8665 15.73211617  1302
STARLINK-4120           
1 53537U 22101L   22255.50001157 -.01117311  00000+0 -18853-1 0  9996
2 53537  53.2178  38.0280 0001890  29.1571 251.3129 15.53894555  1302
STARLINK-4118           
1 53538U 22101M   22255.50001157 -.00002492  00000+0 -13330-4 0  9997
2 53538  53.2170  37.4049 0002026  38.3321 165.1603 15.73200927  1303
STARLINK-4123           
1 53539U 22101N   22255.50001157 -.01117363  00000+0 -18844-1 0  9995
2 53539  53.2178  38.0493 0001860  29.8663 252.2038 15.53909220  1301
STARLINK-4486           
1 53540U 22101P   22255.50001157 -.00001362  00000+0 -52758-5 0  9993
2 53540  53.2175  37.4048 0001990  34.2558 170.4203 15.73207536  1304
STARLINK-4485           
1 53541U 22101Q   22255.50001157 -.01117324  00000+0 -18834-1 0  9994
2 53541  53.2178  38.0707 0001722  33.9679 249.7022 15.53923830  1309
STARLINK-4489           
1 53542U 22101R   22255.50001157  .00027203  00000+0  19767-3 0  9996
2 53542  53.2172  37.4010 0002000  26.3083 179.6033 15.73192743  1305
STARLINK-4297           
1 53543U 22101S   22255.50001157  .00032167  00000+0  23276-3 0  9992
2 53543  53.2172  37.4046 0001969  34.9604 169.1324 15.73196284  1303
STARLINK-4303           
1 53544U 22101T   22255.50001157  .00036571  00000+0  26376-3 0  9990
2 53544  53.2172  37.3993 0001945  30.7090 176.3600 15.73207301  1301
STARLINK-4475           
1 53545U 22101U   22255.50001157  .00015771  00000+0  11647-3 0  9995
2 53545  53.2173  37.4028 0001619  35.1219 170.1551 15.73221556  1308
STARLINK-4477           
1 53546U 22101V   22255.50001157 -.00077039  00000+0 -54745-3 0  9999
2 53546  53.2178  36.3154 0002276  19.1096 353.8656 15.73284321  1302
STARLINK-4474           
1 53547U 22101W   22255.50001157  .00016448  00000+0  12142-3 0  9990
2 53547  53.2174  37.4012 0001776  29.4429 177.0334 15.73192196  1309
STARLINK-4513           
1 53548U 22101X   22255.50001157  .00015784  00000+0  11664-3 0  9991
2 53548  53.2172  37.3948 0001822  28.4769 181.0016 15.73206009  1304
STARLINK-4516           
1 53549U 22101Y   22255.50001157 -.00007794  00000+0 -51171-4 0  9994
2 53549  53.2166  37.3953 0001893  37.7839 169.8559 15.73194362  1307
STARLINK-4518           
1 53550U 22101Z   22255.50001157  .00028334  00000+0  20553-3 0  9996
2 53550  53.2168  37.3923 0001841  26.4075 183.6303 15.73209480  1307
STARLINK-4514           
1 53551U 22101AA  22255.50001157  .00002097  00000+0  19370-4 0  9991
2 53551  53.2173  37.3972 0002225  37.0909 171.1588 15.73190538  1309
STARLINK-4495           
1 53552U 22101AB  22255.50001157 -.00000168  00000+0  32340-5 0  9993
2 53552  53.2172  37.3906 0002214  38.3377 173.5236 15.73188708  1309
STARLINK-4501           
1 53553U 22101AC  22255.50001157  .00031179  00000+0  22587-3 0  9999
2 53553  53.2171  37.3917 0001954  31.9159 178.7171 15.73186600  1302
STARLINK-4506           
1 53554U 22101AD  22255.50001157  .00002037  00000+0  18895-4 0  9999
2 53554  53.2167  37.3864 0001773  41.1608 171.8835 15.73249834  1300
STARLINK-4504           
1 53555U 22101AE  22255.50001157  .00038137  00000+0  27512-3 0  9995
2 53555  53.2166  37.3885 0001974  34.1887 177.0639 15.73181732  1309
STARLINK-4505           
1 53556U 22101AF  22255.50001157  .00014770  00000+0  10944-3 0  9994
2 53556  53.2167  37.3847 0001912  26.7748 187.4143 15.73206020  1307
STARLINK-4502           
1 53557U 22101AG  22255.50001157  .00029915  00000+0  21696-3 0  9998
2 53557  53.2168  37.3878 0001764  34.0343 178.3950 15.73182339  1302
STARLINK-4494           
1 53558U 22101AH  22255.50001157 -.00003511  00000+0 -20613-4 0  9994
2 53558  53.2170  37.3835 0001985  41.0130 174.4023 15.73184162  1300
STARLINK-4508           
1 53559U 22101AJ  22255.50001157 -.00059028  00000+0 -41826-3 0  9997
2 53559  53.2169  37.3864 0001936  35.5353 178.0564 15.73245130  1305
STARLINK-4564           
1 53560U 22101AK  22255.50001157  .00030636  00000+0  22162-3 0  9993
2 53560  53.2166  37.3795 0001908  31.3033 185.2878 15.73229656  1308
STARLINK-4563           
1 53561U 22101AL  22255.50001157  .00034700  00000+0  25056-3 0  9995
2 53561  53.2167  37.3825 0002010  33.8689 180.9288 15.73206134  1306
STARLINK-4565           
1 53562U 22101AM  22255.50001157 -.00024910  00000+0 -17349-3 0  9996
2 53562  53.2165  37.3771 0002004  32.5097 185.2712 15.73210037  1304
STARLINK-4561           
1 53563U 22101AN  22255.50001157  .00009204  00000+0  69847-4 0  9995
2 53563  53.2167  37.3811 0001797  27.4113 188.5629 15.73227989  1309
STARLINK-4577           
1 53564U 22101AP  22255.50001157 -.00024752  00000+0 -17226-3 0  9996
2 53564  53.2163  37.3737 0001805  36.9487 182.0040 15.73224737  1306
STARLINK-4575           
1 53565U 22101AQ  22255.50001157  .00030453  00000+0  22081-3 0  9995
2 53565  53.2166  37.3778 0001923  38.0354 179.1736 15.73178301  1306
STARLINK-4576           
1 53566U 22101AR  22255.50001157  .00026003  00000+0  18901-3 0  9998
2 53566  53.2165  37.3730 0002044  36.5366 183.6126 15.73212210  1306
STARLINK-4585           
1 53567U 22101AS  22255.50001157  .00020329  00000+0  14893-3 0  9990
2 53567  53.2168  37.3767 0001880  29.6451 188.7471 15.73197236  1304
STARLINK-4583           
1 53568U 22101AT  22255.50001157  .00028959  00000+0  20997-3 0  9990
2 53568  53.2164  37.3688 0001973  24.9032 197.0893 15.73207136  1301
STARLINK-4582           
1 53569U 22101AU  22255.50001157 -.00012982  00000+0 -88199-4 0  9991
2 53569  53.2165  37.3732 0002209  39.1680 180.4036 15.73199892  1307
STARLINK-4550           
1 53570U 22101AV  22255.50001157  .00053107  00000+0  38043-3 0  9997
2 53570  53.2165  37.3704 0001811  28.6560 192.7000 15.73198504  1302
STARLINK-4584           
1 53571U 22101AW  22255.50001157  .00047009  00000+0  33763-3 0  9996
2 53571  53.2165  37.3705 0002002  39.3219 181.4110 15.73189115  1302
STARLINK-4555           
1 53572U 22101AX  22255.50001157  .00020484  00000+0  14993-3 0  9999
2 53572  53.2167  37.3657 0002088  22.0498 201.6848 15.73212545  1300
STARLINK-4547           
1 53573U 22101AY  22255.50001157 -.00044659  00000+0 -31469-3 0  9999
2 53573  53.2164  37.3674 0002072  33.1333 189.4483 15.73254332  1309
STARLINK-4559           
1 53574U 22101AZ  22255.50001157  .00032591  00000+0  23559-3 0  9991
2 53574  53.2168  37.3649 0001955  25.7370 199.1873 15.73213199  1300
STARLINK-4551           
1 53575U 22101BA  22255.50001157  .00044825  00000+0  32229-3 0  9999
2 53575  53.2165  37.3666 0001892  23.6231 199.5549 15.73185054  1302
STARLINK-4581           
1 53576U 22101BB  22255.50001157 -.00039189  00000+0 -27578-3 0  9990
2 53576  53.2161  37.3605 0002065  27.4201 198.1782 15.73224430  1300
STARLINK-4553           
1 53577U 22101BC  22255.50001157 -.00089675  00000+0 -64066-3 0  9999
2 53577  53.2165  37.3633 0002139  35.2917 189.0800 15.73221763  1305
STARLINK-4556           
1 53578U 22101BD  22255.50001157  .00044419  00000+0  31957-3 0  9998
2 53578  53.2165  37.3612 0002167  32.4168 193.7175 15.73173860  1302
STARLINK-4580           
1 53579U 22101BE  22255.50001157 -.00017152  00000+0 -11799-3 0  9997
2 53579  53.2165  37.3593 0002113  32.3414 194.3984 15.73204899  1307
FALCON 9 DEB            
1 53580U 22101BF  22251.69903974  .06630223  12236-4  58430-3 0  9999
2 53580  53.2077  52.2940 0010089 118.4804 241.7262 16.38230071  3214
